NORAD_CAT_ID,OBJECT_NAME,OBJECT_TYPE,EPOCH,MEAN_MOTION,ECCENTRICITY,INCLINATION,RA_OF_ASC_NODE,ARG_OF_PERICENTER,MEAN_ANOMALY,BSTAR,MEAN_MOTION_DOT,MEAN_MOTION_DDOT,TLE_LINE0,TLE_LINE1,TLE_LINE2,SEMIMAJOR_AXIS,PERIOD,APOGEE,PERIGEE,DECAYED
52272.0,STARLINK-3781,PAYLOAD,2023-05-06 07:11:11,15.08840645,0.0001252,53.2169,90.6181,91.6154,268.4982,6.2272e-05,7.03e-06,0.0,0 STARLINK-3781,1 52272U 22041M   23126.29944199  .00000703  00000-0  62272-4 0  9991,2 52272  53.2169  90.6181 0001252  91.6154 268.4982 15.08840645 57605,6917.878,95.438,540.61,538.877,0.0
52272.0,STARLINK-3781,PAYLOAD,2023-05-07 02:15:49,15.08840543,0.0001325,53.2177,87.0512,77.2238,282.8902,-2.5918e-05,-7e-06,0.0,0 STARLINK-3781,1 52272U 22041M   23127.09432389 -.00000700  00000-0 -25918-4 0  9998,2 52272  53.2177  87.0512 0001325  77.2238 282.8902 15.08840543 58954,6917.879,95.438,540.66,538.827,0.0
52272.0,STARLINK-3781,PAYLOAD,2023-05-07 03:51:12,15.0884219,0.0001367,53.2174,86.7542,80.7149,279.3998,-1.1693e-05,-4.74e-06,0.0,0 STARLINK-3781,1 52272U 22041M   23127.16056269 -.00000474  00000-0 -11693-4 0  9998,2 52272  53.2174  86.7542 0001367  80.7149 279.3998 15.08842190 57737,6917.874,95.437,540.684,538.793,0.0
52272.0,STARLINK-3781,PAYLOAD,2023-05-08 03:42:00,15.08829295,0.0001227,53.218,82.2912,90.0241,270.0892,0.00014498,2.02e-05,0.0,0 STARLINK-3781,1 52272U 22041M   23128.15416880  .00002020  00000-0  14498-3 0  9999,2 52272  53.2180  82.2912 0001227  90.0241 270.0892 15.08829295 59114,6917.913,95.438,540.627,538.929,0.0
52272.0,STARLINK-3781,PAYLOAD,2023-05-09 03:32:46,15.08842765,0.0001359,53.2175,77.835,85.4906,274.6242,0.00015607,2.197e-05,0.0,0 STARLINK-3781,1 52272U 22041M   23129.14775966  .00002197  00000-0  15607-3 0  9990,2 52272  53.2175  77.8350 0001359  85.4906 274.6242 15.08842765 59268,6917.872,95.437,540.677,538.797,0.0
52272.0,STARLINK-3781,PAYLOAD,2023-05-10 03:23:34,15.0883674,0.000128,53.218,73.3743,90.2295,269.8843,-1.0094e-05,-4.48e-06,0.0,0 STARLINK-3781,1 52272U 22041M   23130.14137197 -.00000448  00000-0 -10094-4 0  9995,2 52272  53.2180  73.3743 0001280  90.2295 269.8843 15.08836740 58188,6917.89,95.438,540.641,538.87,0.0
52272.0,STARLINK-3781,PAYLOAD,2023-05-11 01:38:58,15.08844506,0.0001304,53.2178,69.2104,100.6232,259.4907,-1.7074e-05,-5.6e-06,0.0,0 STARLINK-3781,1 52272U 22041M   23131.06872824 -.00000560  00000-0 -17074-4 0  9990,2 52272  53.2178  69.2104 0001304 100.6232 259.4907 15.08844506 59551,6917.867,95.437,540.634,538.83,0.0
52272.0,STARLINK-3781,PAYLOAD,2023-05-11 03:14:20,15.08847504,0.0001279,53.2182,68.9136,98.0422,262.0716,3.2528e-05,2.3e-06,0.0,0 STARLINK-3781,1 52272U 22041M   23131.13496487  .00000230  00000-0  32528-4 0  9998,2 52272  53.2182  68.9136 0001279  98.0422 262.0716 15.08847504 58333,6917.857,95.437,540.607,538.838,0.0
52272.0,STARLINK-3781,PAYLOAD,2023-05-11 23:54:22,15.08832228,0.0001306,53.2185,65.0483,83.8808,276.2333,4.6356e-05,4.5e-06,0.0,0 STARLINK-3781,1 52272U 22041M   23131.99609705  .00000450  00000-0  46356-4 0  9999,2 52272  53.2185  65.0483 0001306  83.8808 276.2333 15.08832228 59699,6917.904,95.438,540.673,538.866,0.0
52272.0,STARLINK-3781,PAYLOAD,2023-05-12 03:05:09,15.08832971,0.000124,53.2185,64.4533,83.4374,276.6759,4.3849e-05,4.1e-06,0.0,0 STARLINK-3781,1 52272U 22041M   23132.12857704  .00000410  00000-0  43849-4 0  9999,2 52272  53.2185  64.4533 0001240  83.4374 276.6759 15.08832971 58486,6917.902,95.438,540.625,538.909,0.0
52272.0,STARLINK-3781,PAYLOAD,2023-05-13 02:55:54,15.08858014,0.000109,53.218,59.9911,91.0546,269.0571,0.00011225,1.5e-05,0.0,0 STARLINK-3781,1 52272U 22041M   23133.12215898  .00001500  00000-0  11225-3 0  9995,2 52272  53.2180  59.9911 0001090  91.0546 269.0571 15.08858014 59866,6917.825,95.436,540.444,538.936,0.0
52272.0,STARLINK-3781,PAYLOAD,2023-05-14 01:11:20,15.08834906,0.0001069,53.218,55.8298,90.0113,270.1001,1.7961e-05,-2e-08,0.0,0 STARLINK-3781,1 52272U 22041M   23134.04953792 -.00000002  00000-0  17961-4 0  9990,2 52272  53.2180  55.8298 0001069  90.0113 270.1001 15.08834906 60007,6917.896,95.438,540.5,539.021,0.0
52272.0,STARLINK-3781,PAYLOAD,2023-05-14 18:40:34,15.08840642,0.0001134,53.2181,52.5587,89.1978,270.9144,-3.1947e-05,-7.96e-06,0.0,0 STARLINK-3781,1 52272U 22041M   23134.77817734 -.00000796  00000-0 -31947-4 0  9996,2 52272  53.2181  52.5587 0001134  89.1978 270.9144 15.08840642 58887,6917.878,95.438,540.528,538.959,0.0
52272.0,STARLINK-3781,PAYLOAD,2023-05-15 04:12:52,15.08851668,0.0001206,53.2181,50.7734,91.5453,268.5677,3.2147e-05,2.24e-06,0.0,0 STARLINK-3781,1 52272U 22041M   23135.17560766  .00000224  00000-0  32147-4 0  9998,2 52272  53.2181  50.7734 0001206  91.5453 268.5677 15.08851668 60175,6917.845,95.437,540.544,538.875,0.0
52272.0,STARLINK-3781,PAYLOAD,2023-05-16 00:52:54,15.08833698,0.0001307,53.2174,46.9067,96.0615,264.0526,7.9543e-05,9.78e-06,0.0,0 STARLINK-3781,1 52272U 22041M   23136.03673860  .00000978  00000-0  79543-4 0  9991,2 52272  53.2174  46.9067 0001307  96.0615 264.0526 15.08833698 60307,6917.9,95.438,540.669,538.86,0.0
52272.0,STARLINK-3781,PAYLOAD,2023-05-16 21:32:54,15.08843811,0.0001351,53.2179,43.0399,96.5145,263.6001,3.4782e-05,2.66e-06,0.0,0 STARLINK-3781,1 52272U 22041M   23136.89785491  .00000266  00000-0  34782-4 0  9995,2 52272  53.2179  43.0399 0001351  96.5145 263.6001 15.08843811 60435,6917.869,95.437,540.668,538.799,0.0
52272.0,STARLINK-3781,PAYLOAD,2023-05-17 21:23:42,15.08846204,0.000118,53.2177,38.5815,70.9023,289.2097,-0.00013966,-2.51e-05,0.0,0 STARLINK-3781,1 52272U 22041M   23137.89146044 -.00002510  00000-0 -13966-3 0  9997,2 52272  53.2177  38.5815 0001180  70.9023 289.2097 15.08846204 59353,6917.861,95.437,540.543,538.91,0.0
52272.0,STARLINK-3781,PAYLOAD,2023-05-18 02:09:51,15.08839996,0.000122,53.2185,37.6921,95.125,264.9882,5.8643e-05,6.46e-06,0.0,0 STARLINK-3781,1 52272U 22041M   23138.09017659  .00000646  00000-0  58643-4 0  9997,2 52272  53.2185  37.6921 0001220  95.1250 264.9882 15.08839996 60619,6917.88,95.438,540.589,538.901,0.0
52272.0,STARLINK-3781,PAYLOAD,2023-05-18 18:03:43,15.08836689,0.0001136,53.2187,34.7176,95.3271,264.7851,-1.5425e-05,-5.33e-06,0.0,0 STARLINK-3781,1 52272U 22041M   23138.75258169 -.00000533  00000-0 -15425-4 0  9991,2 52272  53.2187  34.7176 0001136  95.3271 264.7851 15.08836689 59485,6917.891,95.438,540.541,538.97,0.0
52272.0,STARLINK-3781,PAYLOAD,2023-05-19 21:05:16,15.0884096,0.0001066,53.2184,29.6622,94.7661,265.3453,5.4205e-05,5.75e-06,0.0,0 STARLINK-3781,1 52272U 22041M   23139.87865812  .00000575  00000-0  54205-4 0  9997,2 52272  53.2184  29.6622 0001066  94.7661 265.3453 15.08840960 59650,6917.877,95.437,540.48,539.005,0.0
52272.0,STARLINK-3781,PAYLOAD,2023-05-20 01:51:24,15.0884854,0.0001114,53.2183,28.77,94.627,265.485,0.0001145,1.535e-05,0.0,0 STARLINK-3781,1 52272U 22041M   23140.07737132  .00001535  00000-0  11450-3 0  9995,2 52272  53.2183  28.7700 0001114  94.6270 265.4850 15.08848540 60910,6917.854,95.437,540.49,538.949,0.0
52272.0,STARLINK-3781,PAYLOAD,2023-05-20 20:56:02,15.08851133,0.0001171,53.2185,25.2007,91.5514,268.5612,0.00014853,2.077e-05,0.0,0 STARLINK-3781,1 52272U 22041M   23140.87224630  .00002077  00000-0  14853-3 0  9999,2 52272  53.2185  25.2007 0001171  91.5514 268.5612 15.08851133 59802,6917.846,95.437,540.521,538.901,0.0
52272.0,STARLINK-3781,PAYLOAD,2023-05-21 01:42:11,15.0885414,0.0001659,53.2187,24.3075,103.6489,256.4688,0.00018895,2.722e-05,0.0,0 STARLINK-3781,1 52272U 22041M   23141.07096421  .00002722  00000-0  18895-3 0  9994,2 52272  53.2187  24.3075 0001659 103.6489 256.4688 15.08854140 59839,6917.837,95.437,540.85,538.554,0.0
52272.0,STARLINK-3781,PAYLOAD,2023-05-21 22:22:14,15.08830469,9.5e-05,53.2192,20.4416,106.7432,253.3665,-0.00011639,-2.139e-05,0.0,0 STARLINK-3781,1 52272U 22041M   23141.93210990 -.00002139  00000-0 -11639-3 0  9991,2 52272  53.2192  20.4416 0000950 106.7432 253.3665 15.08830469 59969,6917.91,95.438,540.432,539.117,0.0
52272.0,STARLINK-3781,PAYLOAD,2023-05-22 01:33:00,15.0883167,0.0001141,53.2193,19.8468,105.3694,254.7424,-0.00010505,-1.959e-05,0.0,0 STARLINK-3781,1 52272U 22041M   23142.06458954 -.00001959  00000-0 -10505-3 0  9990,2 52272  53.2193  19.8468 0001141 105.3694 254.7424 15.08831670 61211,6917.906,95.438,540.56,538.982,0.0
52272.0,STARLINK-3781,PAYLOAD,2023-05-22 09:29:55,15.08838396,0.000125,53.2204,18.3629,104.473,255.6401,-2.3948e-05,-6.69e-06,0.0,0 STARLINK-3781,1 52272U 22041M   23142.39578482 -.00000669  00000-0 -23948-4 0  9998,2 52272  53.2204  18.3629 0001250 104.4730 255.6401 15.08838396 61261,6917.885,95.438,540.615,538.886,0.0
52272.0,STARLINK-3781,PAYLOAD,2023-05-23 22:03:47,15.0883706,9.31e-05,53.2197,11.525,94.1501,265.9598,0.0001306,1.791e-05,0.0,0 STARLINK-3781,1 52272U 22041M   23143.91930501  .00001791  00000-0  13060-3 0  9999,2 52272  53.2197  11.5250 0000931  94.1501 265.9598 15.08837060 60260,6917.889,95.438,540.398,539.11,0.0
52272.0,STARLINK-3781,PAYLOAD,2023-05-24 15:33:03,15.08828516,0.0001012,53.2177,8.2544,92.2858,267.825,-7.0315e-05,-1.406e-05,0.0,0 STARLINK-3781,1 52272U 22041M   23144.64795978 -.00001406  00000-0 -70315-4 0  9999,2 52272  53.2177   8.2544 0001012  92.2858 267.8250 15.08828516 61603,6917.915,95.438,540.481,539.08,0.0
52272.0,STARLINK-3781,PAYLOAD,2023-05-25 20:09:58,15.08847522,9.81e-05,53.2189,2.9005,89.4216,270.6889,0.00013389,1.844e-05,0.0,0 STARLINK-3781,1 52272U 22041M   23145.84026340  .00001844  00000-0  13389-3 0  9993,2 52272  53.2189   2.9005 0000981  89.4216 270.6889 15.08847522 60550,6917.857,95.437,540.401,539.044,0.0
52272.0,STARLINK-3781,PAYLOAD,2023-05-26 18:25:23,15.08837729,0.0001076,53.2194,358.7386,108.1976,251.9133,9.634e-05,1.246e-05,0.0,0 STARLINK-3781,1 52272U 22041M   23146.76763139  .00001246  00000-0  96340-4 0  9994,2 52272  53.2194 358.7386 0001076 108.1976 251.9133 15.08837729 61922,6917.887,95.438,540.497,539.008,0.0
